ONEWEB-0564             
1 55801U 23029F   25276.09184028 -.00001092  00000+0 -27190-2 0  9993
2 55801  87.9240 325.7420 0002012  85.8632 274.2731 13.20776084127218
ONEWEB-0638             
1 55802U 23029G   25276.19107558  .00000090  00000+0  20821-3 0  9998
2 55802  87.9067 340.9561 0001587  85.2780 274.8531 13.14502457125637
ONEWEB-0639             
1 55803U 23029H   25276.24042656  .00000146  00000+0  33207-3 0  9996
2 55803  87.9272 356.0935 0001621 137.9867 222.1390 13.19727472125011
ONEWEB-0640             
1 55804U 23029J   25276.20059161 -.00000393  00000+0 -10946-2 0  9992
2 55804  87.9066 340.9383 0001134  92.8769 267.2491 13.14495399125658
ONEWEB-0641             
1 55805U 23029K   25276.23570348  .00000902  00000+0  22210-2 0  9992
2 55805  87.9287 356.0691 0001777 106.8120 253.3208 13.19721004125027
ONEWEB-0642             
1 55806U 23029L   25276.30676532  .00000032  00000+0  47960-4 0  9998
2 55806  87.9271 356.0860 0001929 128.6167 231.5139 13.19727695125024
ONEWEB-0643             
1 55807U 23029M   25276.24657453  .00000306  00000+0  78986-3 0  9998
2 55807  87.9067 340.9139 0002189 118.8755 241.2595 13.14501696125639
ONEWEB-0644             
1 55808U 23029N   25276.22622205  .00000083  00000+0  17596-3 0  9996
2 55808  87.9272 356.1103 0001820 116.9755 243.1564 13.19726791125017
ONEWEB-0645             
1 55809U 23029P   25276.29809938  .00000191  00000+0  44407-3 0  9995
2 55809  87.9267 356.0803 0001428 111.9704 248.1580 13.19724550125026
ONEWEB-0646             
1 55810U 23029Q   25276.18984824 -.00002215  00000+0 -55676-2 0  9993
2 55810  87.9270 356.1001 0001704 111.1502 248.9813 13.19703485124994
ONEWEB-0648             
1 55811U 23029R   25275.68204701 -.00000125  00000+0 -37104-3 0  9992
2 55811  87.9045 340.9933 0001368 131.4578 228.6670 13.14504471125563
ONEWEB-0649             
1 55812U 23029S   25276.29096781  .00000007  00000+0 -15888-4 0  9992
2 55812  87.9282 356.0742 0001610 114.2111 245.9191 13.19727928125047
ONEWEB-0650             
1 55813U 23029T   25276.28625628  .00000021  00000+0  21316-4 0  9998
2 55813  87.9276 356.0849 0001845 106.5764 253.5572 13.19725608125015
ONEWEB-0652             
1 55814U 23029U   25276.19582350  .00000048  00000+0  93916-4 0  9997
2 55814  87.9066 340.9086 0001990  95.0229 265.1128 13.14500939125601
ONEWEB-0653             
1 55815U 23029V   25276.25609335  .00000261  00000+0  66965-3 0  9998
2 55815  87.9067 340.8870 0001817  92.7154 267.4183 13.14502362125644
ONEWEB-0654             
1 55816U 23029W   25276.09909656  .00000256  00000+0  65519-3 0  9998
2 55816  87.9069 340.9165 0002047  89.2896 270.8468 13.14501526125640
