[{"OBJECT_NAME":"ONEWEB-0564","OBJECT_ID":"2023-029F","EPOCH":"2025-10-03T02:12:15.000192","MEAN_MOTION":13.20776084,"ECCENTRICITY":0.0002012,"INCLINATION":87.924,"RA_OF_ASC_NODE":325.742,"ARG_OF_PERICENTER":85.8632,"MEAN_ANOMALY":274.2731,"EPHEMERIS_TYPE":0,"CLASSIFICATION_TYPE":"U","NORAD_CAT_ID":55801,"ELEMENT_SET_NO":999,"REV_AT_EPOCH":12721,"BSTAR":-0.0027189722,"MEAN_MOTION_DOT":-1.092e-5,"MEAN_MOTION_DDOT":0},{"OBJECT_NAME":"ONEWEB-0638","OBJECT_ID":"2023-029G","EPOCH":"2025-10-03T04:35:08.930112","MEAN_MOTION":13.14502457,"ECCENTRICITY":0.00015878,"INCLINATION":87.9067,"RA_OF_ASC_NODE":340.9561,"ARG_OF_PERICENTER":85.278,"MEAN_ANOMALY":274.8531,"EPHEMERIS_TYPE":0,"CLASSIFICATION_TYPE":"U","NORAD_CAT_ID":55802,"ELEMENT_SET_NO":999,"REV_AT_EPOCH":12563,"BSTAR":0.00020820794,"MEAN_MOTION_DOT":9.0e-7,"MEAN_MOTION_DDOT":0},{"OBJECT_NAME":"ONEWEB-0639","OBJECT_ID":"2023-029H","EPOCH":"2025-10-03T05:46:12.854784","MEAN_MOTION":13.19727472,"ECCENTRICITY":0.00016216,"INCLINATION":87.9272,"RA_OF_ASC_NODE":356.0935,"ARG_OF_PERICENTER":137.9867,"MEAN_ANOMALY":222.139,"EPHEMERIS_TYPE":0,"CLASSIFICATION_TYPE":"U","NORAD_CAT_ID":55803,"ELEMENT_SET_NO":999,"REV_AT_EPOCH":12501,"BSTAR":0.00033206544,"MEAN_MOTION_DOT":1.46e-6,"MEAN_MOTION_DDOT":0},{"OBJECT_NAME":"ONEWEB-0640","OBJECT_ID":"2023-029J","EPOCH":"2025-10-03T04:48:51.115104","MEAN_MOTION":13.14495399,"ECCENTRICITY":0.00011347,"INCLINATION":87.9066,"RA_OF_ASC_NODE":340.9383,"ARG_OF_PERICENTER":92.8769,"MEAN_ANOMALY":267.2491,"EPHEMERIS_TYPE":0,"CLASSIFICATION_TYPE":"U","NORAD_CAT_ID":55804,"ELEMENT_SET_NO":999,"REV_AT_EPOCH":12565,"BSTAR":-0.0010945904,"MEAN_MOTION_DOT":-3.93e-6,"MEAN_MOTION_DDOT":0},{"OBJECT_NAME":"ONEWEB-0641","OBJECT_ID":"2023-029K","EPOCH":"2025-10-03T05:39:24.780672","MEAN_MOTION":13.19721004,"ECCENTRICITY":0.0001777,"INCLINATION":87.9287,"RA_OF_ASC_NODE":356.0691,"ARG_OF_PERICENTER":106.812,"MEAN_ANOMALY":253.3208,"EPHEMERIS_TYPE":0,"CLASSIFICATION_TYPE":"U","NORAD_CAT_ID":55805,"ELEMENT_SET_NO":999,"REV_AT_EPOCH":12502,"BSTAR":0.0022210447,"MEAN_MOTION_DOT":9.02e-6,"MEAN_MOTION_DDOT":0},{"OBJECT_NAME":"ONEWEB-0642","OBJECT_ID":"2023-029L","EPOCH":"2025-10-03T07:21:44.523648","MEAN_MOTION":13.19727695,"ECCENTRICITY":0.0001929,"INCLINATION":87.9271,"RA_OF_ASC_NODE":356.086,"ARG_OF_PERICENTER":128.6167,"MEAN_ANOMALY":231.5139,"EPHEMERIS_TYPE":0,"CLASSIFICATION_TYPE":"U","NORAD_CAT_ID":55806,"ELEMENT_SET_NO":999,"REV_AT_EPOCH":12502,"BSTAR":4.7960429e-5,"MEAN_MOTION_DOT":3.2e-7,"MEAN_MOTION_DDOT":0},{"OBJECT_NAME":"ONEWEB-0643","OBJECT_ID":"2023-029M","EPOCH":"2025-10-03T05:55:04.039392","MEAN_MOTION":13.14501696,"ECCENTRICITY":0.00021892,"INCLINATION":87.9067,"RA_OF_ASC_NODE":340.9139,"ARG_OF_PERICENTER":118.8755,"MEAN_ANOMALY":241.2595,"EPHEMERIS_TYPE":0,"CLASSIFICATION_TYPE":"U","NORAD_CAT_ID":55807,"ELEMENT_SET_NO":999,"REV_AT_EPOCH":12563,"BSTAR":0.00078986049,"MEAN_MOTION_DOT":3.06e-6,"MEAN_MOTION_DDOT":0},{"OBJECT_NAME":"ONEWEB-0644","OBJECT_ID":"2023-029N","EPOCH":"2025-10-03T05:25:45.585120","MEAN_MOTION":13.19726791,"ECCENTRICITY":0.00018204,"INCLINATION":87.9272,"RA_OF_ASC_NODE":356.1103,"ARG_OF_PERICENTER":116.9755,"MEAN_ANOMALY":243.1564,"EPHEMERIS_TYPE":0,"CLASSIFICATION_TYPE":"U","NORAD_CAT_ID":55808,"ELEMENT_SET_NO":999,"REV_AT_EPOCH":12501,"BSTAR":0.00017595891,"MEAN_MOTION_DOT":8.3e-7,"MEAN_MOTION_DDOT":0},{"OBJECT_NAME":"ONEWEB-0645","OBJECT_ID":"2023-029P","EPOCH":"2025-10-03T07:09:15.786432","MEAN_MOTION":13.1972455,"ECCENTRICITY":0.00014285,"INCLINATION":87.9267,"RA_OF_ASC_NODE":356.0803,"ARG_OF_PERICENTER":111.9704,"MEAN_ANOMALY":248.158,"EPHEMERIS_TYPE":0,"CLASSIFICATION_TYPE":"U","NORAD_CAT_ID":55809,"ELEMENT_SET_NO":999,"REV_AT_EPOCH":12502,"BSTAR":0.00044406907,"MEAN_MOTION_DOT":1.91e-6,"MEAN_MOTION_DDOT":0},{"OBJECT_NAME":"ONEWEB-0646","OBJECT_ID":"2023-029Q","EPOCH":"2025-10-03T04:33:22.887936","MEAN_MOTION":13.19703485,"ECCENTRICITY":0.00017043,"INCLINATION":87.927,"RA_OF_ASC_NODE":356.1001,"ARG_OF_PERICENTER":111.1502,"MEAN_ANOMALY":248.9813,"EPHEMERIS_TYPE":0,"CLASSIFICATION_TYPE":"U","NORAD_CAT_ID":55810,"ELEMENT_SET_NO":999,"REV_AT_EPOCH":12499,"BSTAR":-0.005567634,"MEAN_MOTION_DOT":-2.215e-5,"MEAN_MOTION_DDOT":0},{"OBJECT_NAME":"ONEWEB-0648","OBJECT_ID":"2023-029R","EPOCH":"2025-10-02T16:22:08.861664","MEAN_MOTION":13.14504471,"ECCENTRICITY":0.00013687,"INCLINATION":87.9045,"RA_OF_ASC_NODE":340.9933,"ARG_OF_PERICENTER":131.4578,"MEAN_ANOMALY":228.667,"EPHEMERIS_TYPE":0,"CLASSIFICATION_TYPE":"U","NORAD_CAT_ID":55811,"ELEMENT_SET_NO":999,"REV_AT_EPOCH":12556,"BSTAR":-0.00037104331,"MEAN_MOTION_DOT":-1.25e-6,"MEAN_MOTION_DDOT":0},{"OBJECT_NAME":"ONEWEB-0649","OBJECT_ID":"2023-029S","EPOCH":"2025-10-03T06:58:59.618784","MEAN_MOTION":13.19727928,"ECCENTRICITY":0.00016103,"INCLINATION":87.9282,"RA_OF_ASC_NODE":356.0742,"ARG_OF_PERICENTER":114.2111,"MEAN_ANOMALY":245.9191,"EPHEMERIS_TYPE":0,"CLASSIFICATION_TYPE":"U","NORAD_CAT_ID":55812,"ELEMENT_SET_NO":999,"REV_AT_EPOCH":12504,"BSTAR":-1.5887595e-5,"MEAN_MOTION_DOT":7.0e-8,"MEAN_MOTION_DDOT":0},{"OBJECT_NAME":"ONEWEB-0650","OBJECT_ID":"2023-029T","EPOCH":"2025-10-03T06:52:12.542592","MEAN_MOTION":13.19725608,"ECCENTRICITY":0.0001845,"INCLINATION":87.9276,"RA_OF_ASC_NODE":356.0849,"ARG_OF_PERICENTER":106.5764,"MEAN_ANOMALY":253.5572,"EPHEMERIS_TYPE":0,"CLASSIFICATION_TYPE":"U","NORAD_CAT_ID":55813,"ELEMENT_SET_NO":999,"REV_AT_EPOCH":12501,"BSTAR":2.1315864e-5,"MEAN_MOTION_DOT":2.1e-7,"MEAN_MOTION_DDOT":0},{"OBJECT_NAME":"ONEWEB-0652","OBJECT_ID":"2023-029U","EPOCH":"2025-10-03T04:41:59.150400","MEAN_MOTION":13.14500939,"ECCENTRICITY":0.00019907,"INCLINATION":87.9066,"RA_OF_ASC_NODE":340.9086,"ARG_OF_PERICENTER":95.0229,"MEAN_ANOMALY":265.1128,"EPHEMERIS_TYPE":0,"CLASSIFICATION_TYPE":"U","NORAD_CAT_ID":55814,"ELEMENT_SET_NO":999,"REV_AT_EPOCH":12560,"BSTAR":9.3916073e-5,"MEAN_MOTION_DOT":4.8e-7,"MEAN_MOTION_DDOT":0},{"OBJECT_NAME":"ONEWEB-0653","OBJECT_ID":"2023-029V","EPOCH":"2025-10-03T06:08:46.465440","MEAN_MOTION":13.14502362,"ECCENTRICITY":0.00018176,"INCLINATION":87.9067,"RA_OF_ASC_NODE":340.887,"ARG_OF_PERICENTER":92.7154,"MEAN_ANOMALY":267.4183,"EPHEMERIS_TYPE":0,"CLASSIFICATION_TYPE":"U","NORAD_CAT_ID":55815,"ELEMENT_SET_NO":999,"REV_AT_EPOCH":12564,"BSTAR":0.00066964784,"MEAN_MOTION_DOT":2.61e-6,"MEAN_MOTION_DDOT":0},{"OBJECT_NAME":"ONEWEB-0654","OBJECT_ID":"2023-029W","EPOCH":"2025-10-03T02:22:41.942784","MEAN_MOTION":13.14501526,"ECCENTRICITY":0.00020476,"INCLINATION":87.9069,"RA_OF_ASC_NODE":340.9165,"ARG_OF_PERICENTER":89.2896,"MEAN_ANOMALY":270.8468,"EPHEMERIS_TYPE":0,"CLASSIFICATION_TYPE":"U","NORAD_CAT_ID":55816,"ELEMENT_SET_NO":999,"REV_AT_EPOCH":12564,"BSTAR":0.00065519098,"MEAN_MOTION_DOT":2.56e-6,"MEAN_MOTION_DDOT":0}]
